[
    {
        "Altitude(m)": 706114.0716836276,
        "Argument of Periapsis(deg)": 0.0011390121186627068,
        "Eccentricity": 0.0,
        "Inclination(deg)": 45.0,
        "Latitude(deg)": 39.72107016467284,
        "Longitude(deg)": 114.22264284234168,
        "Mean Anomaly(deg)": 115.6988216647481,
        "RAAN(deg)": 89.99892480585419,
        "Satellite Name": "Constellation 1 403",
        "Satellite Number": 403,
        "Semi-Major Axis(m)": 7083131.272910544,
        "Time(s)": 19
    },
    {
        "Altitude(m)": 706108.9175739795,
        "Argument of Periapsis(deg)": 0.0011989601249081123,
        "Eccentricity": 0.0,
        "Inclination(deg)": 45.0,
        "Latitude(deg)": 39.69680298928019,
        "Longitude(deg)": 114.29076503432059,
        "Mean Anomaly(deg)": 115.75952280499796,
        "RAAN(deg)": 89.9988682166886,
        "Satellite Name": "Constellation 1 403",
        "Satellite Number": 403,
        "Semi-Major Axis(m)": 7083131.272910544,
        "Time(s)": 20
    },
    {
        "Altitude(m)": 706103.755987947,
        "Argument of Periapsis(deg)": 0.001258908131153518,
        "Eccentricity": 0.0,
        "Inclination(deg)": 45.0,
        "Latitude(deg)": 39.67249082760957,
        "Longitude(deg)": 114.358836643932,
        "Mean Anomaly(deg)": 115.82022394524789,
        "RAAN(deg)": 89.99881162752304,
        "Satellite Name": "Constellation 1 403",
        "Satellite Number": 403,
        "Semi-Major Axis(m)": 7083131.272910544,
        "Time(s)": 21
    },
    {
        "Altitude(m)": 706098.5869569571,
        "Argument of Periapsis(deg)": 0.0013188561373989236,
        "Eccentricity": 0.0,
        "Inclination(deg)": 45.0,
        "Latitude(deg)": 39.648133749169745,
        "Longitude(deg)": 114.42685748882391,
        "Mean Anomaly(deg)": 115.88092508549776,
        "RAAN(deg)": 89.99875503835746,
        "Satellite Name": "Constellation 1 403",
        "Satellite Number": 403,
        "Semi-Major Axis(m)": 7083131.272910544,
        "Time(s)": 22
    },
    {
        "Altitude(m)": 706093.410512482,
        "Argument of Periapsis(deg)": 0.0013788041436443293,
        "Eccentricity": 0.0,
        "Inclination(deg)": 45.0,
        "Latitude(deg)": 39.62373182346836,
        "Longitude(deg)": 114.49482789137177,
        "Mean Anomaly(deg)": 115.94162622574771,
        "RAAN(deg)": 89.9986984491919,
        "Satellite Name": "Constellation 1 403",
        "Satellite Number": 403,
        "Semi-Major Axis(m)": 7083131.272910544,
        "Time(s)": 23
    },
    {
        "Altitude(m)": 706088.2266860423,
        "Argument of Periapsis(deg)": 0.001438752149889735,
        "Eccentricity": 0.0,
        "Inclination(deg)": 45.0,
        "Latitude(deg)": 39.599285120011956,
        "Longitude(deg)": 114.5627476700935,
        "Mean Anomaly(deg)": 116.00232736599757,
        "RAAN(deg)": 89.99864186002634,
        "Satellite Name": "Constellation 1 403",
        "Satellite Number": 403,
        "Semi-Major Axis(m)": 7083131.272910544,
        "Time(s)": 24
    },
    {
        "Altitude(m)": 706083.0355092199,
        "Argument of Periapsis(deg)": 0.0014987001561351404,
        "Eccentricity": 0.0,
        "Inclination(deg)": 45.0,
        "Latitude(deg)": 39.57479370830502,
        "Longitude(deg)": 114.63061681203705,
        "Mean Anomaly(deg)": 116.06302850624748,
        "RAAN(deg)": 89.99858527086076,
        "Satellite Name": "Constellation 1 403",
        "Satellite Number": 403,
        "Semi-Major Axis(m)": 7083131.272910544,
        "Time(s)": 25
    },
    {
        "Altitude(m)": 706077.8370136394,
        "Argument of Periapsis(deg)": 0.001558648162380546,
        "Eccentricity": 0.0,
        "Inclination(deg)": 45.0,
        "Latitude(deg)": 39.55025765784937,
        "Longitude(deg)": 114.69843530468205,
        "Mean Anomaly(deg)": 116.12372964649738,
        "RAAN(deg)": 89.99852868169519,
        "Satellite Name": "Constellation 1 403",
        "Satellite Number": 403,
        "Semi-Major Axis(m)": 7083131.272910544,
        "Time(s)": 26
    },
    {
        "Altitude(m)": 706072.6312309831,
        "Argument of Periapsis(deg)": 0.0016185961686259519,
        "Eccentricity": 0.0,
        "Inclination(deg)": 45.0,
        "Latitude(deg)": 39.52567703814378,
        "Longitude(deg)": 114.76620313593787,
        "Mean Anomaly(deg)": 116.18443078674728,
        "RAAN(deg)": 89.99847209252962,
        "Satellite Name": "Constellation 1 403",
        "Satellite Number": 403,
        "Semi-Major Axis(m)": 7083131.272910544,
        "Time(s)": 27
    },
    {
        "Altitude(m)": 706067.4181929826,
        "Argument of Periapsis(deg)": 0.0016785441748713573,
        "Eccentricity": 0.0,
        "Inclination(deg)": 45.0,
        "Latitude(deg)": 39.50105191868321,
        "Longitude(deg)": 114.83392029414283,
        "Mean Anomaly(deg)": 116.24513192699715,
        "RAAN(deg)": 89.99841550336406,
        "Satellite Name": "Constellation 1 403",
        "Satellite Number": 403,
        "Semi-Major Axis(m)": 7083131.272910544,
        "Time(s)": 28
    },
    {
        "Altitude(m)": 706062.1979314131,
        "Argument of Periapsis(deg)": 0.001738492181116763,
        "Eccentricity": 0.0,
        "Inclination(deg)": 45.0,
        "Latitude(deg)": 39.476382368958305,
        "Longitude(deg)": 114.90158676806237,
        "Mean Anomaly(deg)": 116.30583306724708,
        "RAAN(deg)": 89.99835891419848,
        "Satellite Name": "Constellation 1 403",
        "Satellite Number": 403,
        "Semi-Major Axis(m)": 7083131.272910544,
        "Time(s)": 29
    },
    {
        "Altitude(m)": 706056.9704781092,
        "Argument of Periapsis(deg)": 0.0017984401873621684,
        "Eccentricity": 0.0,
        "Inclination(deg)": 45.0,
        "Latitude(deg)": 39.45166845845492,
        "Longitude(deg)": 114.96920237879061,
        "Mean Anomaly(deg)": 116.36653420749697,
        "RAAN(deg)": 89.99830232503291,
        "Satellite Name": "Constellation 1 403",
        "Satellite Number": 403,
        "Semi-Major Axis(m)": 7083131.272910544,
        "Time(s)": 30
    },
    {
        "Altitude(m)": 706051.7358649574,
        "Argument of Periapsis(deg)": 0.0018583881936075745,
        "Eccentricity": 0.0,
        "Inclination(deg)": 45.0,
        "Latitude(deg)": 39.426910256653116,
        "Longitude(deg)": 115.03676745213805,
        "Mean Anomaly(deg)": 116.42723534774686,
        "RAAN(deg)": 89.99824573586736,
        "Satellite Name": "Constellation 1 403",
        "Satellite Number": 403,
        "Semi-Major Axis(m)": 7083131.272910544,
        "Time(s)": 31
    },
    {
        "Altitude(m)": 706046.4941238862,
        "Argument of Periapsis(deg)": 0.0019183361998529795,
        "Eccentricity": 0.0,
        "Inclination(deg)": 45.0,
        "Latitude(deg)": 39.40210783302721,
        "Longitude(deg)": 115.10428181004639,
        "Mean Anomaly(deg)": 116.48793648799678,
        "RAAN(deg)": 89.99818914670178,
        "Satellite Name": "Constellation 1 403",
        "Satellite Number": 403,
        "Semi-Major Axis(m)": 7083131.272910544,
        "Time(s)": 32
    },
    {
        "Altitude(m)": 706041.2452868829,
        "Argument of Periapsis(deg)": 0.0019782842060983856,
        "Eccentricity": 0.0,
        "Inclination(deg)": 45.0,
        "Latitude(deg)": 39.37726125704476,
        "Longitude(deg)": 115.17174544297637,
        "Mean Anomaly(deg)": 116.54863762824668,
        "RAAN(deg)": 89.99813255753621,
        "Satellite Name": "Constellation 1 403",
        "Satellite Number": 403,
        "Semi-Major Axis(m)": 7083131.272910544,
        "Time(s)": 33
    },
    {
        "Altitude(m)": 706035.9893859797,
        "Argument of Periapsis(deg)": 0.0020382322123437906,
        "Eccentricity": 0.0,
        "Inclination(deg)": 45.0,
        "Latitude(deg)": 39.352370598166246,
        "Longitude(deg)": 115.23915834180877,
        "Mean Anomaly(deg)": 116.60933876849656,
        "RAAN(deg)": 89.99807596837063,
        "Satellite Name": "Constellation 1 403",
        "Satellite Number": 403,
        "Semi-Major Axis(m)": 7083131.272910544,
        "Time(s)": 34
    },
    {
        "Altitude(m)": 706030.7264532609,
        "Argument of Periapsis(deg)": 0.002098180218589197,
        "Eccentricity": 0.0,
        "Inclination(deg)": 45.0,
        "Latitude(deg)": 39.32743592584422,
        "Longitude(deg)": 115.3065204978436,
        "Mean Anomaly(deg)": 116.67003990874647,
        "RAAN(deg)": 89.99801937920506,
        "Satellite Name": "Constellation 1 403",
        "Satellite Number": 403,
        "Semi-Major Axis(m)": 7083131.272910544,
        "Time(s)": 35
    },
    {
        "Altitude(m)": 706025.4565208565,
        "Argument of Periapsis(deg)": 0.002158128224834602,
        "Eccentricity": 0.0,
        "Inclination(deg)": 45.0,
        "Latitude(deg)": 39.30245730952305,
        "Longitude(deg)": 115.37383190279799,
        "Mean Anomaly(deg)": 116.73074104899638,
        "RAAN(deg)": 89.9979627900395,
        "Satellite Name": "Constellation 1 403",
        "Satellite Number": 403,
        "Semi-Major Axis(m)": 7083131.272910544,
        "Time(s)": 36
    },
    {
        "Altitude(m)": 706020.1796209541,
        "Argument of Periapsis(deg)": 0.002218076231080008,
        "Eccentricity": 0.0,
        "Inclination(deg)": 45.0,
        "Latitude(deg)": 39.27743481863828,
        "Longitude(deg)": 115.44109238070813,
        "Mean Anomaly(deg)": 116.79144218924627,
        "RAAN(deg)": 89.99790620087393,
        "Satellite Name": "Constellation 1 403",
        "Satellite Number": 403,
        "Semi-Major Axis(m)": 7083131.272910544,
        "Time(s)": 37
    }
]